{"type": "FeatureCollection", "features": [ {"type": "Feature", "properties": {"norad_id": 34529, "name": "IRIDIUM 33 DEB", "group": "iridium-33-debris", "lat": -35.98429146964541, "lon": -143.2749111389743, "alt_km": 760.4951950843015, "timestamp": "2025-12-15T20:48:54.269809+00:00", "meta": {"OBJECT_NAME": "IRIDIUM 33 DEB", "OBJECT_ID": "1997-051HW", "EPOCH": "2025-12-14T13:48:34.646400", "MEAN_MOTION": 14.40617345, "ECCENTRICITY": 0.00050347, "INCLINATION": 86.3641, "RA_OF_ASC_NODE": 34.6293, "ARG_OF_PERICENTER": 171.129, "MEAN_ANOMALY": 188.9999, "EPHEMERIS_TYPE": 0, "CLASSIFICATION_TYPE": "U", "NORAD_CAT_ID": 34529, "ELEMENT_SET_NO": 999, "REV_AT_EPOCH": 88168, "BSTAR": 0.00013414701, "MEAN_MOTION_DOT": 4.47e-06, "MEAN_MOTION_DDOT": 0}, "tle": {"line1": "1 34529U 97051HW  25348.57540100  .00000447  00000+0  13415-3 0  9990", "line2": "2 34529  86.3641  34.6293 0005034 171.1290 188.9999 14.40617345881682"}}, "geometry": {"type": "Point", "coordinates": [-143.2749111389743, -35.98429146964541]}}, {"type": "Feature", "properties": {"norad_id": 34538, "name": "IRIDIUM 33 DEB", "group": "iridium-33-debris", "lat": 75.7937777151798, "lon": 19.089362127535633, "alt_km": 753.7642421231312, "timestamp": "2025-12-15T20:48:54.269820+00:00", "meta": {"OBJECT_NAME": "IRIDIUM 33 DEB", "OBJECT_ID": "1997-051JF", "EPOCH": "2025-12-14T13:26:23.381376", "MEAN_MOTION": 14.42661494, "ECCENTRICITY": 0.00326631, "INCLINATION": 86.2774, "RA_OF_ASC_NODE": 4.759, "ARG_OF_PERICENTER": 321.814, "MEAN_ANOMALY": 168.8853, "EPHEMERIS_TYPE": 0, "CLASSIFICATION_TYPE": "U", "NORAD_CAT_ID": 34538, "ELEMENT_SET_NO": 999, "REV_AT_EPOCH": 87782, "BSTAR": 0.00092596448, "MEAN_MOTION_DOT": 3.116e-05, "MEAN_MOTION_DDOT": 0}, "tle": {"line1": "1 34538U 97051JF  25348.55999284  .00003116  00000+0  92596-3 0  9992", "line2": "2 34538  86.2774   4.7590 0032663 321.8140 168.8853 14.42661494877825"}}, "geometry": {"type": "Point", "coordinates": [19.089362127535633, 75.7937777151798]}}, {"type": "Feature", "properties": {"norad_id": 34540, "name": "IRIDIUM 33 DEB", "group": "iridium-33-debris", "lat": 38.07512867672004, "lon": 123.27879631050418, "alt_km": 629.5127003704883, "timestamp": "2025-12-15T20:48:54.269830+00:00", "meta": {"OBJECT_NAME": "IRIDIUM 33 DEB", "OBJECT_ID": "1997-051JH", "EPOCH": "2025-12-14T21:37:43.057056", "MEAN_MOTION": 14.75375098, "ECCENTRICITY": 0.00167778, "INCLINATION": 86.3098, "RA_OF_ASC_NODE": 306.6186, "ARG_OF_PERICENTER": 151.5752, "MEAN_ANOMALY": 262.2222, "EPHEMERIS_TYPE": 0, "CLASSIFICATION_TYPE": "U", "NORAD_CAT_ID": 34540, "ELEMENT_SET_NO": 999, "REV_AT_EPOCH": 89053, "BSTAR": 0.0010616231, "MEAN_MOTION_DOT": 7.243e-05, "MEAN_MOTION_DDOT": 0}, "tle": {"line1": "1 34540U 97051JH  25348.90119279  .00007243  00000+0  10616-2 0  9999", "line2": "2 34540  86.3098 306.6186 0016777 151.5752 262.2222 14.75375098890538"}}, "geometry": {"type": "Point", "coordinates": [123.27879631050418, 38.07512867672004]}}, {"type": "Feature", "properties": {"norad_id": 34648, "name": "IRIDIUM 33 DEB", "group": "iridium-33-debris", "lat": -68.4546274238576, "lon": -88.51896388072066, "alt_km": 729.6200406290327, "timestamp": "2025-12-15T20:48:54.269840+00:00", "meta": {"OBJECT_NAME": "IRIDIUM 33 DEB", "OBJECT_ID": "1997-051JZ", "EPOCH": "2025-12-14T19:36:45.364608", "MEAN_MOTION": 14.11575958, "ECCENTRICITY": 0.01821398, "INCLINATION": 86.3893, "RA_OF_ASC_NODE": 281.1076, "ARG_OF_PERICENTER": 292.3959, "MEAN_ANOMALY": 65.8015, "EPHEMERIS_TYPE": 0, "CLASSIFICATION_TYPE": "U", "NORAD_CAT_ID": 34648, "ELEMENT_SET_NO": 999, "REV_AT_EPOCH": 84990, "BSTAR": 0.0057033227, "MEAN_MOTION_DOT": 0.00012129, "MEAN_MOTION_DDOT": 0}, "tle": {"line1": "1 34648U 97051JZ  25348.81719172  .00012129  00000+0  57033-2 0  9999", "line2": "2 34648  86.3893 281.1076 0182139 292.3959  65.8015 14.11575958849903"}}, "geometry": {"type": "Point", "coordinates": [-88.51896388072066, -68.4546274238576]}}, {"type": "Feature", "properties": {"norad_id": 34651, "name": "IRIDIUM 33 DEB", "group": "iridium-33-debris", "lat": 31.38986440036476, "lon": -43.026726559908326, "alt_km": 731.6161690914078, "timestamp": "2025-12-15T20:48:54.269850+00:00", "meta": {"OBJECT_NAME": "IRIDIUM 33 DEB", "OBJECT_ID": "1997-051KC", "EPOCH": "2025-12-14T20:32:02.678784", "MEAN_MOTION": 14.25858999, "ECCENTRICITY": 0.01421805, "INCLINATION": 86.2825, "RA_OF_ASC_NODE": 139.6773, "ARG_OF_PERICENTER": 197.246, "MEAN_ANOMALY": 162.3876, "EPHEMERIS_TYPE": 0, "CLASSIFICATION_TYPE": "U", "NORAD_CAT_ID": 34651, "ELEMENT_SET_NO": 999, "REV_AT_EPOCH": 85926, "BSTAR": 0.0023063549, "MEAN_MOTION_DOT": 6.121e-05, "MEAN_MOTION_DDOT": 0}, "tle": {"line1": "1 34651U 97051KC  25348.85558656  .00006121  00000+0  23064-2 0  9997", "line2": "2 34651  86.2825 139.6773 0142180 197.2460 162.3876 14.25858999859266"}}, "geometry": {"type": "Point", "coordinates": [-43.026726559908326, 31.38986440036476]}}, {"type": "Feature", "properties": {"norad_id": 34652, "name": "IRIDIUM 33 DEB", "group": "iridium-33-debris", "lat": -67.55710323259422, "lon": 167.54595810117755, "alt_km": 679.6872530284318, "timestamp": "2025-12-15T20:48:54.269860+00:00", "meta": {"OBJECT_NAME": "IRIDIUM 33 DEB", "OBJECT_ID": "1997-051KD", "EPOCH": "2025-12-14T22:27:55.876032", "MEAN_MOTION": 14.62082992, "ECCENTRICITY": 0.00257478, "INCLINATION": 86.3312, "RA_OF_ASC_NODE": 339.0239, "ARG_OF_PERICENTER": 290.2679, "MEAN_ANOMALY": 99.3424, "EPHEMERIS_TYPE": 0, "CLASSIFICATION_TYPE": "U", "NORAD_CAT_ID": 34652, "ELEMENT_SET_NO": 999, "REV_AT_EPOCH": 88516, "BSTAR": 0.00068733857, "MEAN_MOTION_DOT": 3.489e-05, "MEAN_MOTION_DDOT": 0}, "tle": {"line1": "1 34652U 97051KD  25348.93606338  .00003489  00000+0  68734-3 0  9996", "line2": "2 34652  86.3312 339.0239 0025747 290.2679  99.3424 14.62082992885166"}}, "geometry": {"type": "Point", "coordinates": [167.54595810117755, -67.55710323259422]}}, {"type": "Feature", "properties": {"norad_id": 34690, "name": "IRIDIUM 33 DEB", "group": "iridium-33-debris", "lat": 32.28433387191306, "lon": 37.925583943367364, "alt_km": 699.9064273858876, "timestamp": "2025-12-15T20:48:54.269870+00:00", "meta": {"OBJECT_NAME": "IRIDIUM 33 DEB", "OBJECT_ID": "1997-051KM", "EPOCH": "2025-12-14T22:22:43.760352", "MEAN_MOTION": 14.55104553, "ECCENTRICITY": 0.00105916, "INCLINATION": 86.3786, "RA_OF_ASC_NODE": 36.0386, "ARG_OF_PERICENTER": 22.3695, "MEAN_ANOMALY": 156.1415, "EPHEMERIS_TYPE": 0, "CLASSIFICATION_TYPE": "U", "NORAD_CAT_ID": 34690, "ELEMENT_SET_NO": 999, "REV_AT_EPOCH": 88126, "BSTAR": 0.00037009207, "MEAN_MOTION_DOT": 1.618e-05, "MEAN_MOTION_DDOT": 0}, "tle": {"line1": "1 34690U 97051KM  25348.93245093  .00001618  00000+0  37009-3 0  9998", "line2": "2 34690  86.3786  36.0386 0010591  22.3695 156.1415 14.55104553881262"}}, "geometry": {"type": "Point", "coordinates": [37.925583943367364, 32.28433387191306]}}, {"type": "Feature", "properties": {"norad_id": 34693, "name": "IRIDIUM 33 DEB", "group": "iridium-33-debris", "lat": -4.406948666819181, "lon": 122.55583011229363, "alt_km": 490.41261791854504, "timestamp": "2025-12-15T20:48:54.269880+00:00", "meta": {"OBJECT_NAME": "IRIDIUM 33 DEB", "OBJECT_ID": "1997-051KQ", "EPOCH": "2025-12-14T22:17:58.586784", "MEAN_MOTION": 15.28524353, "ECCENTRICITY": 0.00134534, "INCLINATION": 86.3039, "RA_OF_ASC_NODE": 302.737, "ARG_OF_PERICENTER": 49.5329, "MEAN_ANOMALY": 15.6361, "EPHEMERIS_TYPE": 0, "CLASSIFICATION_TYPE": "U", "NORAD_CAT_ID": 34693, "ELEMENT_SET_NO": 999, "REV_AT_EPOCH": 88948, "BSTAR": 0.0028514504, "MEAN_MOTION_DOT": 0.00080044, "MEAN_MOTION_DDOT": 0}, "tle": {"line1": "1 34693U 97051KQ  25348.92915031  .00080044  00000+0  28515-2 0  9997", "line2": "2 34693  86.3039 302.7370 0013453  49.5329  15.6361 15.28524353889483"}}, "geometry": {"type": "Point", "coordinates": [122.55583011229363, -4.406948666819181]}}, {"type": "Feature", "properties": {"norad_id": 34696, "name": "IRIDIUM 33 DEB", "group": "iridium-33-debris", "lat": -74.43741770864456, "lon": 12.206136969106748, "alt_km": 715.7235071483065, "timestamp": "2025-12-15T20:48:54.269890+00:00", "meta": {"OBJECT_NAME": "IRIDIUM 33 DEB", "OBJECT_ID": "1997-051KT", "EPOCH": "2025-12-14T21:07:54.379200", "MEAN_MOTION": 14.65232108, "ECCENTRICITY": 0.00739537, "INCLINATION": 86.1853, "RA_OF_ASC_NODE": 26.5266, "ARG_OF_PERICENTER": 160.2166, "MEAN_ANOMALY": 322.3396, "EPHEMERIS_TYPE": 0, "CLASSIFICATION_TYPE": "U", "NORAD_CAT_ID": 34696, "ELEMENT_SET_NO": 999, "REV_AT_EPOCH": 86704, "BSTAR": 0.0028727685, "MEAN_MOTION_DOT": 0.0001615, "MEAN_MOTION_DDOT": 0}, "tle": {"line1": "1 34696U 97051KT  25348.88049050  .00016150  00000+0  28728-2 0  9997", "line2": "2 34696  86.1853  26.5266 0073953 160.2166 322.3396 14.65232108867042"}}, "geometry": {"type": "Point", "coordinates": [12.206136969106748, -74.43741770864456]}}, {"type": "Feature", "properties": {"norad_id": 34765, "name": "IRIDIUM 33 DEB", "group": "iridium-33-debris", "lat": -76.32658336255459, "lon": -133.32453525052668, "alt_km": 758.1035381251804, "timestamp": "2025-12-15T20:48:54.269900+00:00", "meta": {"OBJECT_NAME": "IRIDIUM 33 DEB", "OBJECT_ID": "1997-051LJ", "EPOCH": "2025-12-14T14:19:22.742400", "MEAN_MOTION": 14.40471099, "ECCENTRICITY": 0.00156422, "INCLINATION": 86.3397, "RA_OF_ASC_NODE": 31.965, "ARG_OF_PERICENTER": 204.9445, "MEAN_ANOMALY": 307.4254, "EPHEMERIS_TYPE": 0, "CLASSIFICATION_TYPE": "U", "NORAD_CAT_ID": 34765, "ELEMENT_SET_NO": 999, "REV_AT_EPOCH": 87640, "BSTAR": 0.00042392247, "MEAN_MOTION_DOT": 1.369e-05, "MEAN_MOTION_DDOT": 0}, "tle": {"line1": "1 34765U 97051LJ  25348.59679100  .00001369  00000+0  42392-3 0  9997", "line2": "2 34765  86.3397  31.9650 0015642 204.9445 307.4254 14.40471099876402"}}, "geometry": {"type": "Point", "coordinates": [-133.32453525052668, -76.32658336255459]}}]}